{"type": "FeatureCollection", "features": [ {"type": "Feature", "properties": {"norad_id": 41019, "name": "GPS BIIF-11 (PRN 10)", "group": "gnss", "lat": -24.887909332585775, "lon": 20.604307984772273, "alt_km": 20233.682822143215, "timestamp": "2025-12-06T18:50:10.410397+00:00", "meta": {"OBJECT_NAME": "GPS BIIF-11 (PRN 10)", "OBJECT_ID": "2015-062A", "EPOCH": "2025-12-04T19:59:07.703520", "MEAN_MOTION": 2.0056698, "ECCENTRICITY": 0.0110602, "INCLINATION": 56.8265, "RA_OF_ASC_NODE": 38.3083, "ARG_OF_PERICENTER": 229.7198, "MEAN_ANOMALY": 129.3626, "EPHEMERIS_TYPE": 0, "CLASSIFICATION_TYPE": "U", "NORAD_CAT_ID": 41019, "ELEMENT_SET_NO": 999, "REV_AT_EPOCH": 7393, "BSTAR": 0, "MEAN_MOTION_DOT": -6.6e-07, "MEAN_MOTION_DDOT": 0}, "tle": {"line1": "1 41019U 15062A   25338.83272805 -.00000066  00000+0  00000+0 0  9996", "line2": "2 41019  56.8265  38.3083 0110602 229.7198 129.3626  2.00566980 73939"}}, "geometry": {"type": "Point", "coordinates": [20.604307984772273, -24.887909332585775]}}, {"type": "Feature", "properties": {"norad_id": 41028, "name": "GSAT-15 (GAGAN/PRN 139)", "group": "gnss", "lat": 0.022100983869344098, "lon": 91.83581590290667, "alt_km": 35796.70469815039, "timestamp": "2025-12-06T18:50:10.410410+00:00", "meta": {"OBJECT_NAME": "GSAT-15 (GAGAN/PRN 139)", "OBJECT_ID": "2015-065A", "EPOCH": "2025-12-06T03:16:38.682912", "MEAN_MOTION": 1.00271233, "ECCENTRICITY": 0.00030015, "INCLINATION": 0.0389, "RA_OF_ASC_NODE": 95.2462, "ARG_OF_PERICENTER": 141.3872, "MEAN_ANOMALY": 341.2131, "EPHEMERIS_TYPE": 0, "CLASSIFICATION_TYPE": "U", "NORAD_CAT_ID": 41028, "ELEMENT_SET_NO": 999, "REV_AT_EPOCH": 3686, "BSTAR": 0, "MEAN_MOTION_DOT": -2.49e-06, "MEAN_MOTION_DDOT": 0}, "tle": {"line1": "1 41028U 15065A   25340.13655883 -.00000249  00000+0  00000+0 0  9999", "line2": "2 41028   0.0389  95.2462 0003001 141.3872 341.2131  1.00271233 36862"}}, "geometry": {"type": "Point", "coordinates": [91.83581590290667, 0.022100983869344098]}}, {"type": "Feature", "properties": {"norad_id": 41174, "name": "GSAT0209 (GALILEO 12)", "group": "gnss", "lat": 55.71116370184696, "lon": -164.58298398560717, "alt_km": 23215.979589860675, "timestamp": "2025-12-06T18:50:10.410423+00:00", "meta": {"OBJECT_NAME": "GSAT0209 (GALILEO 12)", "OBJECT_ID": "2015-079A", "EPOCH": "2025-12-01T22:43:10.411392", "MEAN_MOTION": 1.70474306, "ECCENTRICITY": 0.0002352, "INCLINATION": 55.7062, "RA_OF_ASC_NODE": 106.6773, "ARG_OF_PERICENTER": 357.4206, "MEAN_ANOMALY": 2.5431, "EPHEMERIS_TYPE": 0, "CLASSIFICATION_TYPE": "U", "NORAD_CAT_ID": 41174, "ELEMENT_SET_NO": 999, "REV_AT_EPOCH": 6141, "BSTAR": 0, "MEAN_MOTION_DOT": 3.5e-07, "MEAN_MOTION_DDOT": 0}, "tle": {"line1": "1 41174U 15079A   25335.94664828  .00000035  00000+0  00000+0 0  9990", "line2": "2 41174  55.7062 106.6773 0002352 357.4206   2.5431  1.70474306 61412"}}, "geometry": {"type": "Point", "coordinates": [-164.58298398560717, 55.71116370184696]}}, {"type": "Feature", "properties": {"norad_id": 41175, "name": "GSAT0208 (GALILEO 11)", "group": "gnss", "lat": -36.322253023326134, "lon": 76.44651260360861, "alt_km": 23223.195242260277, "timestamp": "2025-12-06T18:50:10.410434+00:00", "meta": {"OBJECT_NAME": "GSAT0208 (GALILEO 11)", "OBJECT_ID": "2015-079B", "EPOCH": "2025-12-05T16:28:14.683584", "MEAN_MOTION": 1.70474159, "ECCENTRICITY": 0.00019173, "INCLINATION": 55.707, "RA_OF_ASC_NODE": 106.5718, "ARG_OF_PERICENTER": 7.3332, "MEAN_ANOMALY": 352.6208, "EPHEMERIS_TYPE": 0, "CLASSIFICATION_TYPE": "U", "NORAD_CAT_ID": 41175, "ELEMENT_SET_NO": 999, "REV_AT_EPOCH": 6189, "BSTAR": 0, "MEAN_MOTION_DOT": 8e-08, "MEAN_MOTION_DDOT": 0}, "tle": {"line1": "1 41175U 15079B   25339.68628106  .00000008  00000+0  00000+0 0  9995", "line2": "2 41175  55.7070 106.5718 0001917   7.3332 352.6208  1.70474159 61896"}}, "geometry": {"type": "Point", "coordinates": [76.44651260360861, -36.322253023326134]}}, {"type": "Feature", "properties": {"norad_id": 41241, "name": "IRNSS-1E", "group": "gnss", "lat": 23.54199179849097, "lon": 104.98926037138375, "alt_km": 35852.454064946956, "timestamp": "2025-12-06T18:50:10.410448+00:00", "meta": {"OBJECT_NAME": "IRNSS-1E", "OBJECT_ID": "2016-003A", "EPOCH": "2025-12-05T15:56:23.100864", "MEAN_MOTION": 1.00276837, "ECCENTRICITY": 0.00219002, "INCLINATION": 32.8101, "RA_OF_ASC_NODE": 62.5566, "ARG_OF_PERICENTER": 186.7894, "MEAN_ANOMALY": 176.2103, "EPHEMERIS_TYPE": 0, "CLASSIFICATION_TYPE": "U", "NORAD_CAT_ID": 41241, "ELEMENT_SET_NO": 999, "REV_AT_EPOCH": 3614, "BSTAR": 0, "MEAN_MOTION_DOT": -3.14e-06, "MEAN_MOTION_DDOT": 0}, "tle": {"line1": "1 41241U 16003A   25339.66415626 -.00000314  00000+0  00000+0 0  9997", "line2": "2 41241  32.8101  62.5566 0021900 186.7894 176.2103  1.00276837 36142"}}, "geometry": {"type": "Point", "coordinates": [104.98926037138375, 23.54199179849097]}}, {"type": "Feature", "properties": {"norad_id": 41328, "name": "GPS BIIF-12 (PRN 32)", "group": "gnss", "lat": -55.413901071187354, "lon": 6.409778440058587, "alt_km": 19969.569912861152, "timestamp": "2025-12-06T18:50:10.410530+00:00", "meta": {"OBJECT_NAME": "GPS BIIF-12 (PRN 32)", "OBJECT_ID": "2016-007A", "EPOCH": "2025-12-05T09:55:37.612128", "MEAN_MOTION": 2.00560998, "ECCENTRICITY": 0.00917952, "INCLINATION": 55.402, "RA_OF_ASC_NODE": 97.1478, "ARG_OF_PERICENTER": 243.3887, "MEAN_ANOMALY": 115.6411, "EPHEMERIS_TYPE": 0, "CLASSIFICATION_TYPE": "U", "NORAD_CAT_ID": 41328, "ELEMENT_SET_NO": 999, "REV_AT_EPOCH": 7195, "BSTAR": 0, "MEAN_MOTION_DOT": -1.1e-07, "MEAN_MOTION_DDOT": 0}, "tle": {"line1": "1 41328U 16007A   25339.41362977 -.00000011  00000+0  00000+0 0  9994", "line2": "2 41328  55.4020  97.1478 0091795 243.3887 115.6411  2.00560998 71958"}}, "geometry": {"type": "Point", "coordinates": [6.409778440058587, -55.413901071187354]}}, {"type": "Feature", "properties": {"norad_id": 41330, "name": "COSMOS 2514 (751)", "group": "gnss", "lat": -63.08985886750578, "lon": -106.39652323593847, "alt_km": 19120.900310800826, "timestamp": "2025-12-06T18:50:10.410558+00:00", "meta": {"OBJECT_NAME": "COSMOS 2514 (751)", "OBJECT_ID": "2016-008A", "EPOCH": "2025-12-05T22:47:49.584480", "MEAN_MOTION": 2.13102527, "ECCENTRICITY": 0.00123649, "INCLINATION": 65.1377, "RA_OF_ASC_NODE": 319.6365, "ARG_OF_PERICENTER": 219.9676, "MEAN_ANOMALY": 139.9355, "EPHEMERIS_TYPE": 0, "CLASSIFICATION_TYPE": "U", "NORAD_CAT_ID": 41330, "ELEMENT_SET_NO": 999, "REV_AT_EPOCH": 7650, "BSTAR": 0, "MEAN_MOTION_DOT": -4.9e-07, "MEAN_MOTION_DDOT": 0}, "tle": {"line1": "1 41330U 16008A   25339.94987945 -.00000049  00000+0  00000+0 0  9995", "line2": "2 41330  65.1377 319.6365 0012364 219.9676 139.9355  2.13102527 76507"}}, "geometry": {"type": "Point", "coordinates": [-106.39652323593847, -63.08985886750578]}}, {"type": "Feature", "properties": {"norad_id": 41384, "name": "IRNSS-1F", "group": "gnss", "lat": -4.565257820627116, "lon": 31.036782961643947, "alt_km": 35819.42649122825, "timestamp": "2025-12-06T18:50:10.410592+00:00", "meta": {"OBJECT_NAME": "IRNSS-1F", "OBJECT_ID": "2016-015A", "EPOCH": "2025-12-06T01:57:21.943872", "MEAN_MOTION": 1.00269013, "ECCENTRICITY": 0.00224343, "INCLINATION": 4.8637, "RA_OF_ASC_NODE": 101.4647, "ARG_OF_PERICENTER": 179.8484, "MEAN_ANOMALY": 215.5292, "EPHEMERIS_TYPE": 0, "CLASSIFICATION_TYPE": "U", "NORAD_CAT_ID": 41384, "ELEMENT_SET_NO": 999, "REV_AT_EPOCH": 3573, "BSTAR": 0, "MEAN_MOTION_DOT": 1.65e-06, "MEAN_MOTION_DDOT": 0}, "tle": {"line1": "1 41384U 16015A   25340.08150398  .00000165  00000+0  00000+0 0  9991", "line2": "2 41384   4.8637 101.4647 0022434 179.8484 215.5292  1.00269013 35735"}}, "geometry": {"type": "Point", "coordinates": [31.036782961643947, -4.565257820627116]}}, {"type": "Feature", "properties": {"norad_id": 41434, "name": "BEIDOU-2 IGSO-6 (C13)", "group": "gnss", "lat": 41.53102465830205, "lon": 70.78540345002634, "alt_km": 36036.59007441473, "timestamp": "2025-12-06T18:50:10.410611+00:00", "meta": {"OBJECT_NAME": "BEIDOU-2 IGSO-6 (C13)", "OBJECT_ID": "2016-021A", "EPOCH": "2025-12-01T15:57:35.287200", "MEAN_MOTION": 1.00256562, "ECCENTRICITY": 0.00591323, "INCLINATION": 59.9483, "RA_OF_ASC_NODE": 40.0119, "ARG_OF_PERICENTER": 231.2834, "MEAN_ANOMALY": 130.8807, "EPHEMERIS_TYPE": 0, "CLASSIFICATION_TYPE": "U", "NORAD_CAT_ID": 41434, "ELEMENT_SET_NO": 999, "REV_AT_EPOCH": 3550, "BSTAR": 0, "MEAN_MOTION_DOT": -1.55e-06, "MEAN_MOTION_DDOT": 0}, "tle": {"line1": "1 41434U 16021A   25335.66499175 -.00000155  00000+0  00000+0 0  9991", "line2": "2 41434  59.9483  40.0119 0059132 231.2834 130.8807  1.00256562 35501"}}, "geometry": {"type": "Point", "coordinates": [70.78540345002634, 41.53102465830205]}}, {"type": "Feature", "properties": {"norad_id": 41469, "name": "IRNSS-1G", "group": "gnss", "lat": 2.0513425733282546, "lon": 127.74490229034971, "alt_km": 35778.2308538355, "timestamp": "2025-12-06T18:50:10.410632+00:00", "meta": {"OBJECT_NAME": "IRNSS-1G", "OBJECT_ID": "2016-027A", "EPOCH": "2025-12-06T05:43:12.737568", "MEAN_MOTION": 1.00252472, "ECCENTRICITY": 0.00046646, "INCLINATION": 4.7168, "RA_OF_ASC_NODE": 102.267, "ARG_OF_PERICENTER": 336.9918, "MEAN_ANOMALY": 211.2848, "EPHEMERIS_TYPE": 0, "CLASSIFICATION_TYPE": "U", "NORAD_CAT_ID": 41469, "ELEMENT_SET_NO": 999, "REV_AT_EPOCH": 3524, "BSTAR": 0, "MEAN_MOTION_DOT": -3.3e-06, "MEAN_MOTION_DDOT": 0}, "tle": {"line1": "1 41469U 16027A   25340.23834187 -.00000330  00000+0  00000+0 0  9995", "line2": "2 41469   4.7168 102.2670 0004664 336.9918 211.2848  1.00252472 35242"}}, "geometry": {"type": "Point", "coordinates": [127.74490229034971, 2.0513425733282546]}}]}